OTTER                   
1 62623U 25009Q   26068.72300813  .00012198  00000+0  45151-3 0  9990
2 62623  97.4065 151.3812 0003573 310.7710  49.3219 15.27809545 63722
STARLINK-35825          
1 66567U 25268L   26068.10473069  .00031086  00000+0  11338-2 0  9990
2 66567  43.0016 350.0796 0001091 266.9898  93.0829 15.27596711 17873
